{
"type": "FeatureCollection",
"name": "waqi_stations",
"crs": { "type": "name", "properties": { "name": "urn:ogc:def:crs:OGC:1.3:CRS84" } },
"features": [
{ "type": "Feature", "properties": { "station_name": "Sector-1, Noida, India", "lat": 28.5898, "lon": 77.3101, "aqi": 199 }, "geometry": { "type": "Point", "coordinates": [ 77.3101, 28.5898 ] } },
{ "type": "Feature", "properties": { "station_name": "ITI Shahdra, Jhilmil Industrial Area, Delhi, Delhi, India", "lat": 28.672114, "lon": 77.313832, "aqi": 237 }, "geometry": { "type": "Point", "coordinates": [ 77.313832, 28.672114 ] } },
{ "type": "Feature", "properties": { "station_name": "DTU, Delhi, Delhi, India", "lat": 28.749722, "lon": 77.116281, "aqi": 233 }, "geometry": { "type": "Point", "coordinates": [ 77.116281, 28.749722 ] } },
{ "type": "Feature", "properties": { "station_name": "National Institute of Malaria Research, Sector 8, Dwarka, Delhi, Delhi, India", "lat": 28.576909, "lon": 77.075898, "aqi": 228 }, "geometry": { "type": "Point", "coordinates": [ 77.075898, 28.576909 ] } },
{ "type": "Feature", "properties": { "station_name": "ITI Jahangirpuri, Delhi, Delhi, India", "lat": 28.733016, "lon": 77.17197, "aqi": 274 }, "geometry": { "type": "Point", "coordinates": [ 77.17197, 28.733016 ] } },
{ "type": "Feature", "properties": { "station_name": "Mundka, Delhi, Delhi, India", "lat": 28.68241, "lon": 77.030469, "aqi": 288 }, "geometry": { "type": "Point", "coordinates": [ 77.030469, 28.68241 ] } },
{ "type": "Feature", "properties": { "station_name": "CRRI Mathura Road, Delhi, Delhi, India", "lat": 28.551729, "lon": 77.275037, "aqi": 205 }, "geometry": { "type": "Point", "coordinates": [ 77.275037, 28.551729 ] } },
{ "type": "Feature", "properties": { "station_name": "Anand Vihar, Delhi, Delhi, India", "lat": 28.6508, "lon": 77.3152, "aqi": 296 }, "geometry": { "type": "Point", "coordinates": [ 77.3152, 28.6508 ] } },
{ "type": "Feature", "properties": { "station_name": "R.K. Puram, Delhi, Delhi, India", "lat": 28.5648, "lon": 77.1744, "aqi": 332 }, "geometry": { "type": "Point", "coordinates": [ 77.1744, 28.5648 ] } },
{ "type": "Feature", "properties": { "station_name": "ITO, Delhi, Delhi, India", "lat": 28.628577, "lon": 77.241036, "aqi": 211 }, "geometry": { "type": "Point", "coordinates": [ 77.241036, 28.628577 ] } },
{ "type": "Feature", "properties": { "station_name": "Major Dhyan Chand National Stadium, Delhi, Delhi, India", "lat": 28.612498, "lon": 77.237388, "aqi": 177 }, "geometry": { "type": "Point", "coordinates": [ 77.237388, 28.612498 ] } },
{ "type": "Feature", "properties": { "station_name": "Bramprakash Ayurvedic Hospital, Najafgarh, Delhi, Delhi, India", "lat": 28.572714, "lon": 76.933433, "aqi": 178 }, "geometry": { "type": "Point", "coordinates": [ 76.933433, 28.572714 ] } },
{ "type": "Feature", "properties": { "station_name": "Vikas Sadan Gurgaon, Gurgaon, India", "lat": 28.4501238, "lon": 77.0263051, "aqi": 255 }, "geometry": { "type": "Point", "coordinates": [ 77.0263051, 28.4501238 ] } },
{ "type": "Feature", "properties": { "station_name": "Teri Gram, Gurugram, India", "lat": 28.4275, "lon": 77.1465, "aqi": 175 }, "geometry": { "type": "Point", "coordinates": [ 77.1465, 28.4275 ] } },
{ "type": "Feature", "properties": { "station_name": "Sri Auribindo Marg, Delhi, Delhi, India", "lat": 28.528344, "lon": 77.189304, "aqi": 194 }, "geometry": { "type": "Point", "coordinates": [ 77.189304, 28.528344 ] } },
{ "type": "Feature", "properties": { "station_name": "Punjabi Bagh, Delhi, Delhi, India", "lat": 28.6683, "lon": 77.1167, "aqi": 232 }, "geometry": { "type": "Point", "coordinates": [ 77.1167, 28.6683 ] } },
{ "type": "Feature", "properties": { "station_name": "Alipur, Delhi, Delhi, India", "lat": 28.815691, "lon": 77.152491, "aqi": 190 }, "geometry": { "type": "Point", "coordinates": [ 77.152491, 28.815691 ] } },
{ "type": "Feature", "properties": { "station_name": "Delhi Institute of Tool Engineering, Wazirpur, Delhi, Delhi, India", "lat": 28.700505, "lon": 77.165603, "aqi": 163 }, "geometry": { "type": "Point", "coordinates": [ 77.165603, 28.700505 ] } },
{ "type": "Feature", "properties": { "station_name": "Arya Nagar, Bahadurgarh, India", "lat": 28.6701, "lon": 76.9254, "aqi": 156 }, "geometry": { "type": "Point", "coordinates": [ 76.9254, 28.6701 ] } },
{ "type": "Feature", "properties": { "station_name": "Sector-51, Gurugram, India", "lat": 28.4227, "lon": 77.0667, "aqi": 255 }, "geometry": { "type": "Point", "coordinates": [ 77.0667, 28.4227 ] } },
{ "type": "Feature", "properties": { "station_name": "Sector - 125, Noida, India", "lat": 28.5447608, "lon": 77.3231257, "aqi": 183 }, "geometry": { "type": "Point", "coordinates": [ 77.3231257, 28.5447608 ] } },
{ "type": "Feature", "properties": { "station_name": "PGDAV College, Sriniwaspuri, Delhi, Delhi, India", "lat": 28.566827, "lon": 77.251418, "aqi": 251 }, "geometry": { "type": "Point", "coordinates": [ 77.251418, 28.566827 ] } },
{ "type": "Feature", "properties": { "station_name": "Shadipur, Delhi, Delhi, India", "lat": 28.65155278, "lon": 77.15804167, "aqi": 189 }, "geometry": { "type": "Point", "coordinates": [ 77.15804167, 28.65155278 ] } },
{ "type": "Feature", "properties": { "station_name": "Loni, Ghaziabad, India", "lat": 28.757294, "lon": 77.278792, "aqi": 427 }, "geometry": { "type": "Point", "coordinates": [ 77.278792, 28.757294 ] } },
{ "type": "Feature", "properties": { "station_name": "Burari Crossing, Delhi, Delhi, India", "lat": 28.725646, "lon": 77.203384, "aqi": 199 }, "geometry": { "type": "Point", "coordinates": [ 77.203384, 28.725646 ] } },
{ "type": "Feature", "properties": { "station_name": "Sector - 62, Noida, India", "lat": 28.6245479, "lon": 77.3577104, "aqi": 125 }, "geometry": { "type": "Point", "coordinates": [ 77.3577104, 28.6245479 ] } },
{ "type": "Feature", "properties": { "station_name": "Indirapuram, Ghaziabad, India", "lat": 28.646233, "lon": 77.358075, "aqi": 184 }, "geometry": { "type": "Point", "coordinates": [ 77.358075, 28.646233 ] } },
{ "type": "Feature", "properties": { "station_name": "NISE Gwal Pahari, Gurugram, India", "lat": 28.422681, "lon": 77.148944, "aqi": 205 }, "geometry": { "type": "Point", "coordinates": [ 77.148944, 28.422681 ] } },
{ "type": "Feature", "properties": { "station_name": "Jawaharlal Nehru Stadium, Delhi, Delhi, India", "lat": 28.582846, "lon": 77.234366, "aqi": 197 }, "geometry": { "type": "Point", "coordinates": [ 77.234366, 28.582846 ] } },
{ "type": "Feature", "properties": { "station_name": "Satyawati College, Delhi, Delhi, India", "lat": 28.69572, "lon": 77.181295, "aqi": 214 }, "geometry": { "type": "Point", "coordinates": [ 77.181295, 28.69572 ] } },
{ "type": "Feature", "properties": { "station_name": "Narela, Delhi, Delhi, India", "lat": 28.820629, "lon": 77.101099, "aqi": 233 }, "geometry": { "type": "Point", "coordinates": [ 77.101099, 28.820629 ] } },
{ "type": "Feature", "properties": { "station_name": "Vasundhara, Ghaziabad, India", "lat": 28.6603346, "lon": 77.3572563, "aqi": 257 }, "geometry": { "type": "Point", "coordinates": [ 77.3572563, 28.6603346 ] } },
{ "type": "Feature", "properties": { "station_name": "Sector 30, Faridabad, India", "lat": 28.4417, "lon": 77.3217, "aqi": 119 }, "geometry": { "type": "Point", "coordinates": [ 77.3217, 28.4417 ] } },
{ "type": "Feature", "properties": { "station_name": "DITE Okhla, Delhi, Delhi, India", "lat": 28.531314, "lon": 77.270686, "aqi": 195 }, "geometry": { "type": "Point", "coordinates": [ 77.270686, 28.531314 ] } },
{ "type": "Feature", "properties": { "station_name": "Mandir Marg, Delhi, Delhi, India", "lat": 28.6341, "lon": 77.2005, "aqi": 180 }, "geometry": { "type": "Point", "coordinates": [ 77.2005, 28.6341 ] } },
{ "type": "Feature", "properties": { "station_name": "Aya Nagar, Delhi, Delhi, India", "lat": 28.482888, "lon": 77.126748, "aqi": 182 }, "geometry": { "type": "Point", "coordinates": [ 77.126748, 28.482888 ] } },
{ "type": "Feature", "properties": { "station_name": "Sector-116, Noida, India", "lat": 28.56923, "lon": 77.393848, "aqi": 189 }, "geometry": { "type": "Point", "coordinates": [ 77.393848, 28.56923 ] } },
{ "type": "Feature", "properties": { "station_name": "Lodhi Road, Delhi, Delhi, India", "lat": 28.589701, "lon": 77.221917, "aqi": 170 }, "geometry": { "type": "Point", "coordinates": [ 77.221917, 28.589701 ] } },
{ "type": "Feature", "properties": { "station_name": "Pooth Khurd, Bawana, Delhi, Delhi, India", "lat": 28.7757959, "lon": 77.0462514, "aqi": 247 }, "geometry": { "type": "Point", "coordinates": [ 77.0462514, 28.7757959 ] } },
{ "type": "Feature", "properties": { "station_name": "Dr. Karni Singh Shooting Range, Delhi, Delhi, India", "lat": 28.499727, "lon": 77.267095, "aqi": 253 }, "geometry": { "type": "Point", "coordinates": [ 77.267095, 28.499727 ] } },
{ "type": "Feature", "properties": { "station_name": "Mother Dairy Plant, Parparganj, Delhi, Delhi, India", "lat": 28.620171, "lon": 77.287705, "aqi": 213 }, "geometry": { "type": "Point", "coordinates": [ 77.287705, 28.620171 ] } },
{ "type": "Feature", "properties": { "station_name": "Pusa, Delhi, Delhi, India", "lat": 28.636997, "lon": 77.172248, "aqi": 292 }, "geometry": { "type": "Point", "coordinates": [ 77.172248, 28.636997 ] } },
{ "type": "Feature", "properties": { "station_name": "Sonia Vihar Water Treatment Plant DJB, Delhi, Delhi, India", "lat": 28.710066, "lon": 77.24622, "aqi": 233 }, "geometry": { "type": "Point", "coordinates": [ 77.24622, 28.710066 ] } },
{ "type": "Feature", "properties": { "station_name": "Shaheed Sukhdev College of Business Studies, Rohini, Delhi, Delhi, India", "lat": 28.732743, "lon": 77.118788, "aqi": 234 }, "geometry": { "type": "Point", "coordinates": [ 77.118788, 28.732743 ] } }
]
}
